KUIPER-00028            
1 63741U 25088T   26063.36192456  .00003680  00000+0  51058-3 0  9995
2 63741  51.8989 116.6123 0000624  77.0276 283.0756 14.80003574 47277
KUIPER-00029            
1 63742U 25088U   26065.86864492 -.00114249  00000+0 -14083-1 0  9990
2 63742  51.8999 103.1287 0000659 127.6020 232.5003 14.83146545 47204
KUIPER-00030            
1 63743U 25088V   26065.53786236  .00005372  00000+0  73276-3 0  9999
2 63743  51.9005 124.4835 0010829  61.5137 298.6915 14.79937776 47163
KUIPER-00031            
1 63744U 25088W   26065.40392007  .00005665  00000+0  70685-3 0  9991
2 63744  51.8995 110.3056 0002098 133.4329 226.6810 14.83628845 47064
KUIPER-00032            
1 63745U 25088X   26065.35287355  .00020213  00000+0  55543-3 0  9997
2 63745  51.8704  40.3582 0005328 100.8537 259.3049 15.37188330 49033
KUIPER-00033            
1 63746U 25088Y   26065.38801582  .00006627  00000+0  82610-3 0  9993
2 63746  51.9002 140.5379 0000822  42.9589 317.1439 14.83430130 47122
KUIPER-00034            
1 63747U 25088Z   26065.81476095  .00005576  00000+0  69811-3 0  9999
2 63747  51.9002 100.9777 0001775 343.2610  16.8295 14.83518995 47393
KUIPER-00035            
1 63748U 25088AA  26065.58372676  .00007926  00000+0  98613-3 0  9997
2 63748  51.8992 127.6745 0003969  65.1635 294.9741 14.83269519 47059
KUIPER-00037            
1 63749U 25088AB  26065.53514747  .00006846  00000+0  92549-3 0  9992
2 63749  51.8993 127.0104 0000875  59.2774 300.8274 14.79961394 47845
KUIPER-00038            
1 63750U 25088AC  26065.55130788  .00003126  00000+0  43859-3 0  9993
2 63750  51.9044 111.9759 0000886  29.5105 330.5907 14.79957975 47059
KUIPER-00039            
1 64500U 25134A   26065.52402059  .00004583  00000+0  62956-3 0  9996
2 64500  51.8997 247.0906 0001061  68.6746 291.4330 14.79943872 39603
KUIPER-00040            
1 64501U 25134B   26065.51137948  .00004720  00000+0  64628-3 0  9999
2 64501  51.8994 258.2880 0013024 256.5462 103.4049 14.79997679 39446
KUIPER-00041            
1 64502U 25134C   26065.24738240  .00004415  00000+0  62516-3 0  9997
2 64502  51.8984 260.8785 0007213 254.0812 105.9356 14.78717324 39381
KUIPER-00042            
1 64503U 25134D   26065.51411736  .00004650  00000+0  63795-3 0  9997
2 64503  51.8972 255.6339 0007100 270.8636  89.1513 14.79965457 39483
KUIPER-00043            
1 64504U 25134E   26064.89147065  .00004646  00000+0  58233-3 0  9995
2 64504  51.9013 249.9165 0000994 325.3550  34.7349 14.83803217 39516
KUIPER-00044            
1 64505U 25134F   26065.57629698  .00010832  00000+0  14475-2 0  9992
2 64505  51.9031 260.3555 0008066 266.0478  93.9562 14.79917382 39423
